CCSDS_OMM_VERS = 2.0
CREATION_DATE  = 
ORIGINATOR     = 

OBJECT_NAME    = SL-14 R/B
OBJECT_ID      = 1991-042B
CENTER_NAME    = EARTH
REF_FRAME      = TEME
TIME_SYSTEM    = UTC
MEAN_ELEMENT_THEORY = SGP/SGP4

EPOCH          = 2026-03-03T11:28:04.255392
MEAN_MOTION    = 14.81821877
ECCENTRICITY   = .0015598
INCLINATION    = 82.4910
RA_OF_ASC_NODE = 226.0076
ARG_OF_PERICENTER = 260.8398
MEAN_ANOMALY   = 99.1051

EPHEMERIS_TYPE = 0
CLASSIFICATION_TYPE = U
NORAD_CAT_ID   = 21423
ELEMENT_SET_NO = 999
REV_AT_EPOCH   = 85215
BSTAR          = .76495E-4
MEAN_MOTION_DOT = .628E-5
MEAN_MOTION_DDOT = 0

CCSDS_OMM_VERS = 2.0
CREATION_DATE  = 
ORIGINATOR     = 

OBJECT_NAME    = ERS-1
OBJECT_ID      = 1991-050A
CENTER_NAME    = EARTH
REF_FRAME      = TEME
TIME_SYSTEM    = UTC
MEAN_ELEMENT_THEORY = SGP/SGP4

EPOCH          = 2026-03-03T00:34:56.135712
MEAN_MOTION    = 14.39443076
ECCENTRICITY   = .0031273
INCLINATION    = 98.7885
RA_OF_ASC_NODE = 80.0912
ARG_OF_PERICENTER = 220.5217
MEAN_ANOMALY   = 139.3642

EPHEMERIS_TYPE = 0
CLASSIFICATION_TYPE = U
NORAD_CAT_ID   = 21574
ELEMENT_SET_NO = 999
REV_AT_EPOCH   = 81477
BSTAR          = .13389E-3
MEAN_MOTION_DOT = .373E-5
MEAN_MOTION_DDOT = 0

CCSDS_OMM_VERS = 2.0
CREATION_DATE  = 
ORIGINATOR     = 

OBJECT_NAME    = ARIANE 40 R/B
OBJECT_ID      = 1991-050F
CENTER_NAME    = EARTH
REF_FRAME      = TEME
TIME_SYSTEM    = UTC
MEAN_ELEMENT_THEORY = SGP/SGP4

EPOCH          = 2026-03-03T03:50:59.869824
MEAN_MOTION    = 14.42887827
ECCENTRICITY   = .0004357
INCLINATION    = 98.2026
RA_OF_ASC_NODE = 114.6416
ARG_OF_PERICENTER = 95.3900
MEAN_ANOMALY   = 264.7788

EPHEMERIS_TYPE = 0
CLASSIFICATION_TYPE = U
NORAD_CAT_ID   = 21610
ELEMENT_SET_NO = 999
REV_AT_EPOCH   = 81805
BSTAR          = .11721E-3
MEAN_MOTION_DOT = .35E-5
MEAN_MOTION_DDOT = 0

CCSDS_OMM_VERS = 2.0
CREATION_DATE  = 
ORIGINATOR     = 

OBJECT_NAME    = INTERCOSMOS 25
OBJECT_ID      = 1991-086A
CENTER_NAME    = EARTH
REF_FRAME      = TEME
TIME_SYSTEM    = UTC
MEAN_ELEMENT_THEORY = SGP/SGP4

EPOCH          = 2026-03-03T03:15:35.048448
MEAN_MOTION    = 12.11978116
ECCENTRICITY   = .1487061
INCLINATION    = 82.6064
RA_OF_ASC_NODE = 313.9690
ARG_OF_PERICENTER = 131.0519
MEAN_ANOMALY   = 242.9013

EPHEMERIS_TYPE = 0
CLASSIFICATION_TYPE = U
NORAD_CAT_ID   = 21819
ELEMENT_SET_NO = 999
REV_AT_EPOCH   = 49589
BSTAR          = .29578E-3
MEAN_MOTION_DOT = .1543E-4
MEAN_MOTION_DDOT = 0

CCSDS_OMM_VERS = 2.0
CREATION_DATE  = 
ORIGINATOR     = 

OBJECT_NAME    = SL-8 R/B
OBJECT_ID      = 1992-008B
CENTER_NAME    = EARTH
REF_FRAME      = TEME
TIME_SYSTEM    = UTC
MEAN_ELEMENT_THEORY = SGP/SGP4

EPOCH          = 2026-03-03T02:46:33.000672
MEAN_MOTION    = 13.75969816
ECCENTRICITY   = .0035217
INCLINATION    = 82.9227
RA_OF_ASC_NODE = 272.6698
ARG_OF_PERICENTER = 151.2540
MEAN_ANOMALY   = 324.8285

EPHEMERIS_TYPE = 0
CLASSIFICATION_TYPE = U
NORAD_CAT_ID   = 21876
ELEMENT_SET_NO = 999
REV_AT_EPOCH   = 70851
BSTAR          = -.10117E-4
MEAN_MOTION_DOT = .6E-7
MEAN_MOTION_DDOT = 0

CCSDS_OMM_VERS = 2.0
CREATION_DATE  = 
ORIGINATOR     = 

OBJECT_NAME    = SL-8 R/B
OBJECT_ID      = 1992-020B
CENTER_NAME    = EARTH
REF_FRAME      = TEME
TIME_SYSTEM    = UTC
MEAN_ELEMENT_THEORY = SGP/SGP4

EPOCH          = 2026-03-03T08:45:04.946112
MEAN_MOTION    = 13.75548624
ECCENTRICITY   = .0027916
INCLINATION    = 82.9340
RA_OF_ASC_NODE = 158.4563
ARG_OF_PERICENTER = 317.1968
MEAN_ANOMALY   = 107.5530

EPHEMERIS_TYPE = 0
CLASSIFICATION_TYPE = U
NORAD_CAT_ID   = 21938
ELEMENT_SET_NO = 999
REV_AT_EPOCH   = 70026
BSTAR          = .76656E-4
MEAN_MOTION_DOT = .89E-6
MEAN_MOTION_DDOT = 0

CCSDS_OMM_VERS = 2.0
CREATION_DATE  = 
ORIGINATOR     = 

OBJECT_NAME    = USA 81
OBJECT_ID      = 1992-023A
CENTER_NAME    = EARTH
REF_FRAME      = TEME
TIME_SYSTEM    = UTC
MEAN_ELEMENT_THEORY = SGP/SGP4

EPOCH          = 2026-03-03T07:14:31.016832
MEAN_MOTION    = 14.32365444
ECCENTRICITY   = .0002589
INCLINATION    = 85.0098
RA_OF_ASC_NODE = 135.1261
ARG_OF_PERICENTER = 82.4759
MEAN_ANOMALY   = 277.6728

EPHEMERIS_TYPE = 0
CLASSIFICATION_TYPE = U
NORAD_CAT_ID   = 21949
ELEMENT_SET_NO = 999
REV_AT_EPOCH   = 9387
BSTAR          = .76723E-4
MEAN_MOTION_DOT = .227E-5
MEAN_MOTION_DDOT = 0

CCSDS_OMM_VERS = 2.0
CREATION_DATE  = 
ORIGINATOR     = 

OBJECT_NAME    = COSMOS 2219
OBJECT_ID      = 1992-076A
CENTER_NAME    = EARTH
REF_FRAME      = TEME
TIME_SYSTEM    = UTC
MEAN_ELEMENT_THEORY = SGP/SGP4

EPOCH          = 2026-03-03T08:48:10.381248
MEAN_MOTION    = 14.14089002
ECCENTRICITY   = .0019334
INCLINATION    = 71.0618
RA_OF_ASC_NODE = 31.2845
ARG_OF_PERICENTER = 215.5019
MEAN_ANOMALY   = 144.4818

EPHEMERIS_TYPE = 0
CLASSIFICATION_TYPE = U
NORAD_CAT_ID   = 22219
ELEMENT_SET_NO = 999
REV_AT_EPOCH   = 71748
BSTAR          = .18266E-3
MEAN_MOTION_DOT = .301E-5
MEAN_MOTION_DDOT = 0

CCSDS_OMM_VERS = 2.0
CREATION_DATE  = 
ORIGINATOR     = 

OBJECT_NAME    = SL-16 R/B
OBJECT_ID      = 1992-076B
CENTER_NAME    = EARTH
REF_FRAME      = TEME
TIME_SYSTEM    = UTC
MEAN_ELEMENT_THEORY = SGP/SGP4

EPOCH          = 2026-03-03T11:37:11.462016
MEAN_MOTION    = 14.16859943
ECCENTRICITY   = .0010623
INCLINATION    = 70.9998
RA_OF_ASC_NODE = 201.4439
ARG_OF_PERICENTER = 107.8705
MEAN_ANOMALY   = 315.1002

EPHEMERIS_TYPE = 0
CLASSIFICATION_TYPE = U
NORAD_CAT_ID   = 22220
ELEMENT_SET_NO = 999
REV_AT_EPOCH   = 72095
BSTAR          = .54693E-4
MEAN_MOTION_DOT = .62E-6
MEAN_MOTION_DDOT = 0

CCSDS_OMM_VERS = 2.0
CREATION_DATE  = 
ORIGINATOR     = 

OBJECT_NAME    = COSMOS 2221
OBJECT_ID      = 1992-080A
CENTER_NAME    = EARTH
REF_FRAME      = TEME
TIME_SYSTEM    = UTC
MEAN_ELEMENT_THEORY = SGP/SGP4

EPOCH          = 2026-03-03T01:59:55.017024
MEAN_MOTION    = 14.96170383
ECCENTRICITY   = .0013466
INCLINATION    = 82.5019
RA_OF_ASC_NODE = 285.4101
ARG_OF_PERICENTER = 210.3026
MEAN_ANOMALY   = 149.7419

EPHEMERIS_TYPE = 0
CLASSIFICATION_TYPE = U
NORAD_CAT_ID   = 22236
ELEMENT_SET_NO = 999
REV_AT_EPOCH   = 77980
BSTAR          = .17727E-3
MEAN_MOTION_DOT = .2025E-4
MEAN_MOTION_DDOT = 0

CCSDS_OMM_VERS = 2.0
CREATION_DATE  = 
ORIGINATOR     = 

OBJECT_NAME    = SL-16 R/B
OBJECT_ID      = 1992-093B
CENTER_NAME    = EARTH
REF_FRAME      = TEME
TIME_SYSTEM    = UTC
MEAN_ELEMENT_THEORY = SGP/SGP4

EPOCH          = 2026-03-03T07:24:16.070976
MEAN_MOTION    = 14.15449567
ECCENTRICITY   = .0006286
INCLINATION    = 71.0238
RA_OF_ASC_NODE = 17.6603
ARG_OF_PERICENTER = 300.4923
MEAN_ANOMALY   = 59.5579

EPHEMERIS_TYPE = 0
CLASSIFICATION_TYPE = U
NORAD_CAT_ID   = 22285
ELEMENT_SET_NO = 999
REV_AT_EPOCH   = 71225
BSTAR          = -.43252E-4
MEAN_MOTION_DOT = -.132E-5
MEAN_MOTION_DDOT = 0

CCSDS_OMM_VERS = 2.0
CREATION_DATE  = 
ORIGINATOR     = 

OBJECT_NAME    = COSMOS 2228
OBJECT_ID      = 1992-094A
CENTER_NAME    = EARTH
REF_FRAME      = TEME
TIME_SYSTEM    = UTC
MEAN_ELEMENT_THEORY = SGP/SGP4

EPOCH          = 2026-03-03T12:07:13.154304
MEAN_MOTION    = 14.97152546
ECCENTRICITY   = .0017191
INCLINATION    = 82.5144
RA_OF_ASC_NODE = 243.2332
ARG_OF_PERICENTER = 326.7174
MEAN_ANOMALY   = 33.2966

EPHEMERIS_TYPE = 0
CLASSIFICATION_TYPE = U
NORAD_CAT_ID   = 22286
ELEMENT_SET_NO = 999
REV_AT_EPOCH   = 77513
BSTAR          = .27655E-3
MEAN_MOTION_DOT = .3228E-4
MEAN_MOTION_DDOT = 0

